[{"OBJECT_NAME":"ONEWEB-0704","OBJECT_ID":"2024-188R","EPOCH":"2026-01-21T09:16:48.414144","MEAN_MOTION":13.10375532,"ECCENTRICITY":0.0001832,"INCLINATION":87.8791,"RA_OF_ASC_NODE":65.4934,"ARG_OF_PERICENTER":128.3297,"MEAN_ANOMALY":231.7995,"EPHEMERIS_TYPE":0,"CLASSIFICATION_TYPE":"U","NORAD_CAT_ID":61609,"ELEMENT_SET_NO":999,"REV_AT_EPOCH":6406,"BSTAR":-0.0010939,"MEAN_MOTION_DOT":-3.69e-6,"MEAN_MOTION_DDOT":0},{"OBJECT_NAME":"ONEWEB-0705","OBJECT_ID":"2024-188S","EPOCH":"2026-01-21T09:23:59.603712","MEAN_MOTION":13.10376373,"ECCENTRICITY":0.0002771,"INCLINATION":87.8778,"RA_OF_ASC_NODE":65.5102,"ARG_OF_PERICENTER":116.2969,"MEAN_ANOMALY":243.8443,"EPHEMERIS_TYPE":0,"CLASSIFICATION_TYPE":"U","NORAD_CAT_ID":61610,"ELEMENT_SET_NO":999,"REV_AT_EPOCH":5623,"BSTAR":-0.00023585,"MEAN_MOTION_DOT":-7.0e-7,"MEAN_MOTION_DDOT":0},{"OBJECT_NAME":"ONEWEB-0706","OBJECT_ID":"2024-188T","EPOCH":"2026-01-21T09:02:27.717216","MEAN_MOTION":13.10374081,"ECCENTRICITY":0.000199,"INCLINATION":87.8769,"RA_OF_ASC_NODE":65.5303,"ARG_OF_PERICENTER":117.3643,"MEAN_ANOMALY":242.7687,"EPHEMERIS_TYPE":0,"CLASSIFICATION_TYPE":"U","NORAD_CAT_ID":61611,"ELEMENT_SET_NO":999,"REV_AT_EPOCH":6415,"BSTAR":-0.0018104,"MEAN_MOTION_DOT":-6.19e-6,"MEAN_MOTION_DDOT":0},{"OBJECT_NAME":"ONEWEB-0707","OBJECT_ID":"2024-188U","EPOCH":"2026-01-21T09:12:01.750176","MEAN_MOTION":13.10375446,"ECCENTRICITY":0.00019,"INCLINATION":87.8779,"RA_OF_ASC_NODE":65.5111,"ARG_OF_PERICENTER":117.1732,"MEAN_ANOMALY":242.9589,"EPHEMERIS_TYPE":0,"CLASSIFICATION_TYPE":"U","NORAD_CAT_ID":61612,"ELEMENT_SET_NO":999,"REV_AT_EPOCH":6409,"BSTAR":-0.0012264,"MEAN_MOTION_DOT":-4.15e-6,"MEAN_MOTION_DDOT":0},{"OBJECT_NAME":"ONEWEB-0708","OBJECT_ID":"2024-188V","EPOCH":"2026-01-21T09:38:20.574528","MEAN_MOTION":13.10377331,"ECCENTRICITY":0.000242,"INCLINATION":87.8771,"RA_OF_ASC_NODE":65.5389,"ARG_OF_PERICENTER":102.1211,"MEAN_ANOMALY":258.0188,"EPHEMERIS_TYPE":0,"CLASSIFICATION_TYPE":"U","NORAD_CAT_ID":61613,"ELEMENT_SET_NO":999,"REV_AT_EPOCH":6407,"BSTAR":0.001458,"MEAN_MOTION_DOT":5.22e-6,"MEAN_MOTION_DDOT":0}]
