ONEWEB-0704             
1 61609U 24188R   26021.38667146 -.00000369  00000+0 -10939-2 0  9990
2 61609  87.8791  65.4934 0001832 128.3297 231.7995 13.10375532 64063
ONEWEB-0705             
1 61610U 24188S   26021.39166208 -.00000070  00000+0 -23585-3 0  9997
2 61610  87.8778  65.5102 0002771 116.2969 243.8443 13.10376373 56239
ONEWEB-0706             
1 61611U 24188T   26021.37670969 -.00000619  00000+0 -18104-2 0  9999
2 61611  87.8769  65.5303 0001990 117.3643 242.7687 13.10374081 64158
ONEWEB-0707             
1 61612U 24188U   26021.38335359 -.00000415  00000+0 -12264-2 0  9997
2 61612  87.8779  65.5111 0001900 117.1732 242.9589 13.10375446 64097
ONEWEB-0708             
1 61613U 24188V   26021.40162702  .00000522  00000+0  14580-2 0  9991
2 61613  87.8771  65.5389 0002420 102.1211 258.0188 13.10377331 64077
